CCSDS_OMM_VERS = 2.0
CREATION_DATE  = 
ORIGINATOR     = 

OBJECT_NAME    = ISS (ZARYA)
OBJECT_ID      = 1998-067A
CENTER_NAME    = EARTH
REF_FRAME      = TEME
TIME_SYSTEM    = UTC
MEAN_ELEMENT_THEORY = SGP/SGP4

EPOCH          = 2026-01-08T21:17:24.741024
MEAN_MOTION    = 15.49180370
ECCENTRICITY   = .0007663
INCLINATION    = 51.6333
RA_OF_ASC_NODE = 8.0698
ARG_OF_PERICENTER = 356.5554
MEAN_ANOMALY   = 3.5381

EPHEMERIS_TYPE = 0
CLASSIFICATION_TYPE = U
NORAD_CAT_ID   = 25544
ELEMENT_SET_NO = 999
REV_AT_EPOCH   = 54706
BSTAR          = .15864E-3
MEAN_MOTION_DOT = .8359E-4
MEAN_MOTION_DDOT = 0

CCSDS_OMM_VERS = 2.0
CREATION_DATE  = 
ORIGINATOR     = 

OBJECT_NAME    = CSS (TIANHE)
OBJECT_ID      = 2021-035A
CENTER_NAME    = EARTH
REF_FRAME      = TEME
TIME_SYSTEM    = UTC
MEAN_ELEMENT_THEORY = SGP/SGP4

EPOCH          = 2026-01-08T14:34:19.031808
MEAN_MOTION    = 15.60317657
ECCENTRICITY   = .00111303
INCLINATION    = 41.4648
RA_OF_ASC_NODE = 213.4557
ARG_OF_PERICENTER = 245.5686
MEAN_ANOMALY   = 114.3992

EPHEMERIS_TYPE = 0
CLASSIFICATION_TYPE = U
NORAD_CAT_ID   = 48274
ELEMENT_SET_NO = 999
REV_AT_EPOCH   = 26822
BSTAR          = .50792436E-3
MEAN_MOTION_DOT = .42775E-3
MEAN_MOTION_DDOT = 0

CCSDS_OMM_VERS = 2.0
CREATION_DATE  = 
ORIGINATOR     = 

OBJECT_NAME    = ISS (NAUKA)
OBJECT_ID      = 2021-066A
CENTER_NAME    = EARTH
REF_FRAME      = TEME
TIME_SYSTEM    = UTC
MEAN_ELEMENT_THEORY = SGP/SGP4

EPOCH          = 2026-01-08T12:00:03.881088
MEAN_MOTION    = 15.49175445
ECCENTRICITY   = .0007637
INCLINATION    = 51.6332
RA_OF_ASC_NODE = 9.9851
ARG_OF_PERICENTER = 355.2000
MEAN_ANOMALY   = 4.8914

EPHEMERIS_TYPE = 0
CLASSIFICATION_TYPE = U
NORAD_CAT_ID   = 49044
ELEMENT_SET_NO = 999
REV_AT_EPOCH   = 23044
BSTAR          = .18407097E-3
MEAN_MOTION_DOT = .9772E-4
MEAN_MOTION_DDOT = 0

CCSDS_OMM_VERS = 2.0
CREATION_DATE  = 
ORIGINATOR     = 

OBJECT_NAME    = CSS (WENTIAN)
OBJECT_ID      = 2022-085A
CENTER_NAME    = EARTH
REF_FRAME      = TEME
TIME_SYSTEM    = UTC
MEAN_ELEMENT_THEORY = SGP/SGP4

EPOCH          = 2026-01-08T14:34:19.031808
MEAN_MOTION    = 15.60317657
ECCENTRICITY   = .00111303
INCLINATION    = 41.4648
RA_OF_ASC_NODE = 213.4557
ARG_OF_PERICENTER = 245.5686
MEAN_ANOMALY   = 114.3992

EPHEMERIS_TYPE = 0
CLASSIFICATION_TYPE = U
NORAD_CAT_ID   = 53239
ELEMENT_SET_NO = 999
REV_AT_EPOCH   = 17384
BSTAR          = .50792436E-3
MEAN_MOTION_DOT = .42775E-3
MEAN_MOTION_DDOT = 0

CCSDS_OMM_VERS = 2.0
CREATION_DATE  = 
ORIGINATOR     = 

OBJECT_NAME    = CSS (MENGTIAN)
OBJECT_ID      = 2022-143A
CENTER_NAME    = EARTH
REF_FRAME      = TEME
TIME_SYSTEM    = UTC
MEAN_ELEMENT_THEORY = SGP/SGP4

EPOCH          = 2026-01-08T14:34:19.031808
MEAN_MOTION    = 15.60317657
ECCENTRICITY   = .00111303
INCLINATION    = 41.4648
RA_OF_ASC_NODE = 213.4557
ARG_OF_PERICENTER = 245.5686
MEAN_ANOMALY   = 114.3992

EPHEMERIS_TYPE = 0
CLASSIFICATION_TYPE = U
NORAD_CAT_ID   = 54216
ELEMENT_SET_NO = 999
REV_AT_EPOCH   = 15864
BSTAR          = .50792436E-3
MEAN_MOTION_DOT = .42775E-3
MEAN_MOTION_DDOT = 0

CCSDS_OMM_VERS = 2.0
CREATION_DATE  = 
ORIGINATOR     = 

OBJECT_NAME    = SHENZHOU-20 (SZ-20)
OBJECT_ID      = 2025-082A
CENTER_NAME    = EARTH
REF_FRAME      = TEME
TIME_SYSTEM    = UTC
MEAN_ELEMENT_THEORY = SGP/SGP4

EPOCH          = 2026-01-08T14:34:19.031808
MEAN_MOTION    = 15.60317657
ECCENTRICITY   = .00111303
INCLINATION    = 41.4648
RA_OF_ASC_NODE = 213.4557
ARG_OF_PERICENTER = 245.5686
MEAN_ANOMALY   = 114.3992

EPHEMERIS_TYPE = 0
CLASSIFICATION_TYPE = U
NORAD_CAT_ID   = 63632
ELEMENT_SET_NO = 999
REV_AT_EPOCH   = 25530
BSTAR          = .50792436E-3
MEAN_MOTION_DOT = .42775E-3
MEAN_MOTION_DDOT = 0

CCSDS_OMM_VERS = 2.0
CREATION_DATE  = 
ORIGINATOR     = 

OBJECT_NAME    = PROGRESS-MS 31
OBJECT_ID      = 2025-146A
CENTER_NAME    = EARTH
REF_FRAME      = TEME
TIME_SYSTEM    = UTC
MEAN_ELEMENT_THEORY = SGP/SGP4

EPOCH          = 2026-01-08T12:00:03.881088
MEAN_MOTION    = 15.49175445
ECCENTRICITY   = .0007637
INCLINATION    = 51.6332
RA_OF_ASC_NODE = 9.9851
ARG_OF_PERICENTER = 355.2000
MEAN_ANOMALY   = 4.8914

EPHEMERIS_TYPE = 0
CLASSIFICATION_TYPE = U
NORAD_CAT_ID   = 64751
ELEMENT_SET_NO = 999
REV_AT_EPOCH   = 675
BSTAR          = .18407097E-3
MEAN_MOTION_DOT = .9772E-4
MEAN_MOTION_DDOT = 0

CCSDS_OMM_VERS = 2.0
CREATION_DATE  = 
ORIGINATOR     = 

OBJECT_NAME    = TIANZHOU-9
OBJECT_ID      = 2025-149A
CENTER_NAME    = EARTH
REF_FRAME      = TEME
TIME_SYSTEM    = UTC
MEAN_ELEMENT_THEORY = SGP/SGP4

EPOCH          = 2026-01-08T14:34:19.031808
MEAN_MOTION    = 15.60317657
ECCENTRICITY   = .00111303
INCLINATION    = 41.4648
RA_OF_ASC_NODE = 213.4557
ARG_OF_PERICENTER = 245.5686
MEAN_ANOMALY   = 114.3992

EPHEMERIS_TYPE = 0
CLASSIFICATION_TYPE = U
NORAD_CAT_ID   = 64786
ELEMENT_SET_NO = 999
REV_AT_EPOCH   = 25530
BSTAR          = .50792436E-3
MEAN_MOTION_DOT = .42775E-3
MEAN_MOTION_DDOT = 0

CCSDS_OMM_VERS = 2.0
CREATION_DATE  = 
ORIGINATOR     = 

OBJECT_NAME    = CREW DRAGON 11
OBJECT_ID      = 2025-166A
CENTER_NAME    = EARTH
REF_FRAME      = TEME
TIME_SYSTEM    = UTC
MEAN_ELEMENT_THEORY = SGP/SGP4

EPOCH          = 2026-01-08T12:00:03.881088
MEAN_MOTION    = 15.49175445
ECCENTRICITY   = .0007637
INCLINATION    = 51.6332
RA_OF_ASC_NODE = 9.9851
ARG_OF_PERICENTER = 355.2000
MEAN_ANOMALY   = 4.8914

EPHEMERIS_TYPE = 0
CLASSIFICATION_TYPE = U
NORAD_CAT_ID   = 65077
ELEMENT_SET_NO = 999
REV_AT_EPOCH   = 214
BSTAR          = .18407097E-3
MEAN_MOTION_DOT = .9772E-4
MEAN_MOTION_DDOT = 0

CCSDS_OMM_VERS = 2.0
CREATION_DATE  = 
ORIGINATOR     = 

OBJECT_NAME    = DRAGON CRS-33
OBJECT_ID      = 2025-186A
CENTER_NAME    = EARTH
REF_FRAME      = TEME
TIME_SYSTEM    = UTC
MEAN_ELEMENT_THEORY = SGP/SGP4

EPOCH          = 2026-01-08T12:00:03.881088
MEAN_MOTION    = 15.49175445
ECCENTRICITY   = .0007637
INCLINATION    = 51.6332
RA_OF_ASC_NODE = 9.9851
ARG_OF_PERICENTER = 355.2000
MEAN_ANOMALY   = 4.8914

EPHEMERIS_TYPE = 0
CLASSIFICATION_TYPE = U
NORAD_CAT_ID   = 65304
ELEMENT_SET_NO = 999
REV_AT_EPOCH   = 11
BSTAR          = .18407097E-3
MEAN_MOTION_DOT = .9772E-4
MEAN_MOTION_DDOT = 0

CCSDS_OMM_VERS = 2.0
CREATION_DATE  = 
ORIGINATOR     = 

OBJECT_NAME    = PROGRESS-MS 32
OBJECT_ID      = 2025-204A
CENTER_NAME    = EARTH
REF_FRAME      = TEME
TIME_SYSTEM    = UTC
MEAN_ELEMENT_THEORY = SGP/SGP4

EPOCH          = 2026-01-08T12:00:03.881088
MEAN_MOTION    = 15.49175445
ECCENTRICITY   = .0007637
INCLINATION    = 51.6332
RA_OF_ASC_NODE = 9.9851
ARG_OF_PERICENTER = 355.2000
MEAN_ANOMALY   = 4.8914

EPHEMERIS_TYPE = 0
CLASSIFICATION_TYPE = U
NORAD_CAT_ID   = 65586
ELEMENT_SET_NO = 999
REV_AT_EPOCH   = 27
BSTAR          = .18407097E-3
MEAN_MOTION_DOT = .9772E-4
MEAN_MOTION_DDOT = 0

