ISS (ZARYA)             
1 25544U 98067A   26008.88709191  .00008359  00000+0  15864-3 0  9990
2 25544  51.6333   8.0698 0007663 356.5554   3.5381 15.49180370547069
CSS (TIANHE)            
1 48274U 21035A   26008.60716472  .00042775  00000+0  50792-3 0  9995
2 48274  41.4648 213.4557 0011130 245.5686 114.3992 15.60317657268223
ISS (NAUKA)             
1 49044U 21066A   26008.50004492  .00009772  00000+0  18407-3 0  9993
2 49044  51.6332   9.9851 0007637 355.2000   4.8914 15.49175445230447
CSS (WENTIAN)           
1 53239U 22085A   26008.60716472  .00042775  00000+0  50792-3 0  9998
2 53239  41.4648 213.4557 0011130 245.5686 114.3992 15.60317657173843
CSS (MENGTIAN)          
1 54216U 22143A   26008.60716472  .00042775  00000+0  50792-3 0  9999
2 54216  41.4648 213.4557 0011130 245.5686 114.3992 15.60317657158640
SHENZHOU-20 (SZ-20)     
1 63632U 25082A   26008.60716472  .00042775  00000+0  50792-3 0  9996
2 63632  41.4648 213.4557 0011130 245.5686 114.3992 15.60317657255303
PROGRESS-MS 31          
1 64751U 25146A   26008.50004492  .00009772  00000+0  18407-3 0  9998
2 64751  51.6332   9.9851 0007637 355.2000   4.8914 15.49175445  6754
TIANZHOU-9              
1 64786U 25149A   26008.60716472  .00042775  00000+0  50792-3 0  9991
2 64786  41.4648 213.4557 0011130 245.5686 114.3992 15.60317657255304
CREW DRAGON 11          
1 65077U 25166A   26008.50004492  .00009772  00000+0  18407-3 0  9992
2 65077  51.6332   9.9851 0007637 355.2000   4.8914 15.49175445  2145
DRAGON CRS-33           
1 65304U 25186A   26008.50004492  .00009772  00000+0  18407-3 0  9997
2 65304  51.6332   9.9851 0007637 355.2000   4.8914 15.49175445   113
PROGRESS-MS 32          
1 65586U 25204A   26008.50004492  .00009772  00000+0  18407-3 0  9990
2 65586  51.6332   9.9851 0007637 355.2000   4.8914 15.49175445   272
